STARLINK-31630          
1 59271U 24050T   26068.56880718 -.00002063  00000+0 -57526-4 0  9991
2 59271  53.1600 168.5079 0001409  92.3163 267.7999 15.30200807110710
STARLINK-34077          
1 64009U 25101R   26068.13798973  .00033147  00000+0  12078-2 0  9994
2 64009  43.0039   0.8363 0001216 287.6209  72.4509 15.27604249 46977
